OBJECT_NAME,OBJECT_ID,EPOCH,MEAN_MOTION,ECCENTRICITY,INCLINATION,RA_OF_ASC_NODE,ARG_OF_PERICENTER,MEAN_ANOMALY,EPHEMERIS_TYPE,CLASSIFICATION_TYPE,NORAD_CAT_ID,ELEMENT_SET_NO,REV_AT_EPOCH,BSTAR,MEAN_MOTION_DOT,MEAN_MOTION_DDOT
IRIDIUM 138,2017-083B,2026-06-25T19:52:39.185184,14.34217874,.0002235,86.3986,318.0990,87.2655,272.8796,0,U,43071,999,44537,.14463E-4,.6E-6,0
IRIDIUM 116,2017-083C,2026-06-25T19:06:59.157792,14.34217942,.0002143,86.3972,318.4013,101.5857,258.5580,0,U,43072,999,44540,.42568E-4,.139E-5,0
IRIDIUM 130,2017-083D,2026-06-25T20:01:46.989696,14.34216676,.0001881,86.3976,318.6616,96.7338,263.4072,0,U,43073,999,44535,.58484E-5,.36E-6,0
IRIDIUM 151,2017-083E,2026-06-25T19:25:15.178944,14.34217772,.0002188,86.3972,318.4538,93.9700,266.1746,0,U,43074,999,44537,.11018E-4,.51E-6,0
IRIDIUM 134,2017-083F,2026-06-25T20:20:03.136128,14.34218225,.0002134,86.3974,318.4461,94.0262,266.1178,0,U,43075,999,44534,.39139E-4,.129E-5,0
IRIDIUM 137,2017-083G,2026-06-25T20:38:19.205664,14.34217573,.0002367,86.3974,318.5340,102.7067,257.4394,0,U,43076,999,44541,-.2894E-5,.12E-6,0
IRIDIUM 141,2017-083H,2026-06-25T20:29:11.169600,14.34217777,.0002208,86.3970,318.3665,91.3520,268.7929,0,U,43077,999,44541,.63833E-5,.38E-6,0
IRIDIUM 153,2017-083J,2026-06-25T19:20:19.430016,14.34217320,.0002089,86.3964,286.8675,90.8348,269.3087,0,U,43078,999,44651,-.12333E-4,-.15E-6,0
IRIDIUM 131,2017-083K,2026-06-25T20:10:55.180416,14.34217270,.0002137,86.3974,318.5586,92.4990,267.6450,0,U,43079,999,44534,-.47182E-5,.7E-7,0
IRIDIUM 144,2018-030A,2026-06-25T17:48:58.933728,14.34220022,.0002222,86.3964,286.8228,98.4361,261.7087,0,U,43249,999,43136,.61192E-4,.191E-5,0
IRIDIUM 149,2018-030B,2026-06-25T19:38:35.457216,14.34217423,.0002202,86.3962,286.7581,94.1022,266.0425,0,U,43250,999,43139,-.68553E-5,.1E-7,0
IRIDIUM 157,2018-030C,2026-06-25T20:05:59.408160,14.34217528,.0002155,86.3964,286.8034,94.9410,265.2032,0,U,43251,999,43137,-.10528E-4,-.1E-6,0
IRIDIUM 140,2018-030D,2026-06-25T20:33:23.308992,14.34217361,.0002144,86.3964,286.8079,95.2340,264.9100,0,U,43252,999,43143,.57006E-4,.179E-5,0
IRIDIUM 145,2018-030E,2026-06-25T20:15:07.369920,14.34218057,.0002208,86.3961,286.7854,103.0866,257.0577,0,U,43253,999,43136,.20639E-4,.78E-6,0
IRIDIUM 146,2018-030F,2026-06-25T19:47:43.424160,14.34217702,.0002244,86.3963,286.8055,98.0196,262.1254,0,U,43254,999,43137,.19493E-4,.74E-6,0
IRIDIUM 148,2018-030G,2026-06-25T17:21:35.428608,14.34217672,.000221,86.3965,286.8914,96.1958,263.9489,0,U,43255,999,43139,-.26263E-5,.12E-6,0
IRIDIUM 142,2018-030H,2026-06-25T19:56:51.421344,14.34217739,.0002264,86.3960,286.7349,99.6563,260.4888,0,U,43256,999,43137,-.11382E-5,.17E-6,0
IRIDIUM 150,2018-030J,2026-06-25T19:11:11.369760,14.34218232,.0002154,86.3965,286.8647,95.6391,264.5051,0,U,43257,999,43139,.64171E-4,.199E-5,0
IRIDIUM 143,2018-030K,2026-06-25T20:24:15.407712,14.34218012,.0002201,86.3967,286.9363,98.0693,262.0752,0,U,43258,999,43133,.81834E-4,.249E-5,0
IRIDIUM 161,2018-047C,2026-06-25T18:23:03.657120,14.43282939,.0002508,86.4481,84.8845,81.4224,278.7261,0,U,43478,999,42637,.80102E-4,.29E-5,0
IRIDIUM 152,2018-047D,2026-06-25T19:44:58.210080,14.34217828,.0002321,86.3957,84.7219,82.7236,277.4224,0,U,43479,999,42372,.694E-4,.214E-5,0
IRIDIUM 147,2018-047E,2026-06-25T19:54:06.264288,14.34217408,.0002029,86.3955,84.7245,86.9530,273.1898,0,U,43480,999,42372,-.1191E-4,-.14E-6,0
IRIDIUM 110,2018-047F,2026-06-25T20:03:14.314176,14.34217222,.0002359,86.3957,84.8139,78.5082,281.6378,0,U,43481,999,42371,-.19176E-4,-.34E-6,0
IRIDIUM 162,2018-047G,2026-06-25T19:53:49.672032,14.43278184,.0002247,86.4482,84.7491,83.9214,276.2243,0,U,43482,999,42637,.58204E-4,.216E-5,0
IRIDIUM 160,2018-061A,2026-06-25T17:04:46.495200,14.34217757,.0002264,86.3956,53.2329,85.7581,274.3873,0,U,43569,999,41459,.44927E-5,.32E-6,0
IRIDIUM 166,2018-061B,2026-06-25T17:41:18.449376,14.34217425,.0002024,86.3949,53.1724,87.9026,272.2401,0,U,43570,999,41462,-.11914E-4,-.14E-6,0
IRIDIUM 158,2018-061C,2026-06-25T16:55:38.435808,14.34217596,.0002183,86.3952,53.1958,83.8686,276.2759,0,U,43571,999,41458,.3068E-4,.106E-5,0
IRIDIUM 165,2018-061D,2026-06-25T17:32:10.421952,14.34217351,.0002131,86.3957,53.2317,89.4975,270.6465,0,U,43572,999,41461,.12969E-4,.56E-6,0
IRIDIUM 155,2018-061E,2026-06-25T16:37:22.457856,14.34217776,.0002035,86.3952,53.1162,84.1423,276.0005,0,U,43573,999,41457,.86429E-5,.44E-6,0
IRIDIUM 154,2018-061F,2026-06-25T16:09:58.449024,14.34217940,.0002178,86.3956,53.2584,89.3495,270.7950,0,U,43574,999,41462,.27607E-4,.97E-6,0
IRIDIUM 163,2018-061G,2026-06-25T17:23:02.495616,14.34217628,.0002203,86.3954,53.1521,83.5939,276.5508,0,U,43575,999,41460,.24317E-4,.88E-6,0
