IRIDIUM 138             
1 43071U 17083B   26176.82823131  .00000060  00000+0  14463-4 0  9991
2 43071  86.3986 318.0990 0002235  87.2655 272.8796 14.34217874445377
IRIDIUM 116             
1 43072U 17083C   26176.79651803  .00000139  00000+0  42568-4 0  9997
2 43072  86.3972 318.4013 0002143 101.5857 258.5580 14.34217942445407
IRIDIUM 130             
1 43073U 17083D   26176.83457164  .00000036  00000+0  58484-5 0  9998
2 43073  86.3976 318.6616 0001881  96.7338 263.4072 14.34216676445358
IRIDIUM 151             
1 43074U 17083E   26176.80920346  .00000051  00000+0  11018-4 0  9991
2 43074  86.3972 318.4538 0002188  93.9700 266.1746 14.34217772445377
IRIDIUM 134             
1 43075U 17083F   26176.84725852  .00000129  00000+0  39139-4 0  9991
2 43075  86.3974 318.4461 0002134  94.0262 266.1178 14.34218225445341
IRIDIUM 137             
1 43076U 17083G   26176.85994451  .00000012  00000+0 -28940-5 0  9997
2 43076  86.3974 318.5340 0002367 102.7067 257.4394 14.34217573445413
IRIDIUM 141             
1 43077U 17083H   26176.85360150  .00000038  00000+0  63833-5 0  9998
2 43077  86.3970 318.3665 0002208  91.3520 268.7929 14.34217777445414
IRIDIUM 153             
1 43078U 17083J   26176.80578044 -.00000015  00000+0 -12333-4 0  9992
2 43078  86.3964 286.8675 0002089  90.8348 269.3087 14.34217320446515
IRIDIUM 131             
1 43079U 17083K   26176.84091644  .00000007  00000+0 -47182-5 0  9994
2 43079  86.3974 318.5586 0002137  92.4990 267.6450 14.34217270445345
IRIDIUM 144             
1 43249U 18030A   26176.74234877  .00000191  00000+0  61192-4 0  9991
2 43249  86.3964 286.8228 0002222  98.4361 261.7087 14.34220022431363
IRIDIUM 149             
1 43250U 18030B   26176.81846594  .00000001  00000+0 -68553-5 0  9996
2 43250  86.3962 286.7581 0002202  94.1022 266.0425 14.34217423431397
IRIDIUM 157             
1 43251U 18030C   26176.83749315 -.00000010  00000+0 -10528-4 0  9991
2 43251  86.3964 286.8034 0002155  94.9410 265.2032 14.34217528431379
IRIDIUM 140             
1 43252U 18030D   26176.85651978  .00000179  00000+0  57006-4 0  9997
2 43252  86.3964 286.8079 0002144  95.2340 264.9100 14.34217361431437
IRIDIUM 145             
1 43253U 18030E   26176.84383530  .00000078  00000+0  20639-4 0  9993
2 43253  86.3961 286.7854 0002208 103.0866 257.0577 14.34218057431363
IRIDIUM 146             
1 43254U 18030F   26176.82480815  .00000074  00000+0  19493-4 0  9998
2 43254  86.3963 286.8055 0002244  98.0196 262.1254 14.34217702431375
IRIDIUM 148             
1 43255U 18030G   26176.72332672  .00000012  00000+0 -26263-5 0  9992
2 43255  86.3965 286.8914 0002210  96.1958 263.9489 14.34217672431397
IRIDIUM 142             
1 43256U 18030H   26176.83115071  .00000017  00000+0 -11382-5 0  9998
2 43256  86.3960 286.7349 0002264  99.6563 260.4888 14.34217739431370
IRIDIUM 150             
1 43257U 18030J   26176.79943715  .00000199  00000+0  64171-4 0  9991
2 43257  86.3965 286.8647 0002154  95.6391 264.5051 14.34218232431399
IRIDIUM 143             
1 43258U 18030K   26176.85017833  .00000249  00000+0  81834-4 0  9993
2 43258  86.3967 286.9363 0002201  98.0693 262.0752 14.34218012431334
IRIDIUM 161             
1 43478U 18047C   26176.76601455  .00000290  00000+0  80102-4 0  9997
2 43478  86.4481  84.8845 0002508  81.4224 278.7261 14.43282939426372
IRIDIUM 152             
1 43479U 18047D   26176.82289595  .00000214  00000+0  69400-4 0  9996
2 43479  86.3957  84.7219 0002321  82.7236 277.4224 14.34217828423720
IRIDIUM 147             
1 43480U 18047E   26176.82923917 -.00000014  00000+0 -11910-4 0  9994
2 43480  86.3955  84.7245 0002029  86.9530 273.1898 14.34217408423721
IRIDIUM 110             
1 43481U 18047F   26176.83558234 -.00000034  00000+0 -19176-4 0  9996
2 43481  86.3957  84.8139 0002359  78.5082 281.6378 14.34217222423712
IRIDIUM 162             
1 43482U 18047G   26176.82904713  .00000216  00000+0  58204-4 0  9998
2 43482  86.4482  84.7491 0002247  83.9214 276.2243 14.43278184426370
IRIDIUM 160             
1 43569U 18061A   26176.71164925  .00000032  00000+0  44927-5 0  9995
2 43569  86.3956  53.2329 0002264  85.7581 274.3873 14.34217757414596
IRIDIUM 166             
1 43570U 18061B   26176.73701909 -.00000014  00000+0 -11914-4 0  9999
2 43570  86.3949  53.1724 0002024  87.9026 272.2401 14.34217425414620
IRIDIUM 158             
1 43571U 18061C   26176.70530597  .00000106  00000+0  30680-4 0  9991
2 43571  86.3952  53.1958 0002183  83.8686 276.2759 14.34217596414581
IRIDIUM 165             
1 43572U 18061D   26176.73067618  .00000056  00000+0  12969-4 0  9998
2 43572  86.3957  53.2317 0002131  89.4975 270.6465 14.34217351414618
IRIDIUM 155             
1 43573U 18061E   26176.69262104  .00000044  00000+0  86429-5 0  9991
2 43573  86.3952  53.1162 0002035  84.1423 276.0005 14.34217776414570
IRIDIUM 154             
1 43574U 18061F   26176.67359316  .00000097  00000+0  27607-4 0  9992
2 43574  86.3956  53.2584 0002178  89.3495 270.7950 14.34217940414627
IRIDIUM 163             
1 43575U 18061G   26176.72433444  .00000088  00000+0  24317-4 0  9999
2 43575  86.3954  53.1521 0002203  83.5939 276.5508 14.34217628414608
